[{"OBJECT_NAME":"FLOCK 4H-18","OBJECT_ID":"2025-276BH","EPOCH":"2026-03-09T16:52:19.316640","MEAN_MOTION":15.1850104,"ECCENTRICITY":0.00043189,"INCLINATION":97.4245,"RA_OF_ASC_NODE":143.8758,"ARG_OF_PERICENTER":35.357,"MEAN_ANOMALY":324.795,"EPHEMERIS_TYPE":0,"CLASSIFICATION_TYPE":"U","NORAD_CAT_ID":66721,"ELEMENT_SET_NO":999,"REV_AT_EPOCH":1531,"BSTAR":0.00039590396,"MEAN_MOTION_DOT":8.104e-5,"MEAN_MOTION_DDOT":0},{"OBJECT_NAME":"HAWK-13B","OBJECT_ID":"2026-004AK","EPOCH":"2026-03-09T21:38:50.163072","MEAN_MOTION":15.18214359,"ECCENTRICITY":0.00057548,"INCLINATION":97.4526,"RA_OF_ASC_NODE":69.3757,"ARG_OF_PERICENTER":335.2738,"MEAN_ANOMALY":24.8219,"EPHEMERIS_TYPE":0,"CLASSIFICATION_TYPE":"U","NORAD_CAT_ID":67396,"ELEMENT_SET_NO":999,"REV_AT_EPOCH":869,"BSTAR":0.00016976548,"MEAN_MOTION_DOT":3.406e-5,"MEAN_MOTION_DDOT":0}]
